STARLINK-35259          
1 66198U 25243W   25329.08336806  .00077310  00000+0  26003-2 0  9991
2 66198  53.1591  11.4958 0001141  79.1995 257.5854 15.30138728  5741
STARLINK-35509          
1 66199U 25243Y   25329.08336806 -.01998767  00000+0 -49094-1 0  9997
2 66199  53.1598  11.2081 0001278  69.7235  51.8394 15.43586944  5742
STARLINK-35551          
1 66200U 25243Z   25329.08336806 -.02020590  00000+0 -47522-1 0  9995
2 66200  53.1593  11.2061 0001337  85.6501  37.2874 15.44891943  5747
STARLINK-35543          
1 66201U 25243AA  25329.08336806 -.02020189  00000+0 -49173-1 0  9994
2 66201  53.1603  11.2169 0001170  75.0818  42.0288 15.43891033  5807
STARLINK-35534          
1 66202U 25243AB  25329.08336806 -.02000697  00000+0 -50373-1 0  9991
2 66202  53.1605  11.2316 0001290  79.3575  31.0293 15.42862962  5749
STARLINK-35548          
1 66203U 25243AC  25329.08336806 -.01999798  00000+0 -52146-1 0  9990
2 66203  53.1605  11.2472 0001325  77.2050  25.5106 15.41825131  5801
STARLINK-35490          
1 66204U 25243AD  25329.08336806 -.02001631  00000+0 -55947-1 0  9994
2 66204  53.1595  11.2823 0000942  86.2018 358.6076 15.39756855  5694
STARLINK-35748          
1 66206U 25244A   25328.82485942  .00065143  00000+0  16237-2 0  9998
2 66206  53.1613   0.5938 0000981  62.5126 297.5978 15.39637754  5558
STARLINK-35747          
1 66207U 25244B   25329.08336806 -.02521874  00000+0 -31322-1 0  9995
2 66207  53.1593 357.0008 0001427  81.5805  10.1791 15.63016074  5415
STARLINK-35751          
1 66208U 25244C   25329.08418720  .00075426  00000+0  18760-2 0  9997
2 66208  53.1607 359.3663 0001644  90.3497 269.7696 15.39636941  5599
STARLINK-35750          
1 66209U 25244D   25328.81988904  .00061466  00000+0  15332-2 0  9995
2 66209  53.1601   0.5581 0002219  88.6571 271.4688 15.39640976  5550
STARLINK-35740          
1 66210U 25244E   25328.82021759  .00047858  00000+0  11983-2 0  9991
2 66210  53.1612   0.5595 0001264  94.4415 265.6734 15.39635239  5553
