CCSDS_OMM_VERS = 2.0
CREATION_DATE  = 
ORIGINATOR     = 

OBJECT_NAME    = STARLINK-35259
OBJECT_ID      = 2025-243W
CENTER_NAME    = EARTH
REF_FRAME      = TEME
TIME_SYSTEM    = UTC
MEAN_ELEMENT_THEORY = SGP/SGP4

EPOCH          = 2025-11-25T02:00:03.000384
MEAN_MOTION    = 15.30138728
ECCENTRICITY   = .0001141
INCLINATION    = 53.1591
RA_OF_ASC_NODE = 11.4958
ARG_OF_PERICENTER = 79.1995
MEAN_ANOMALY   = 257.5854

EPHEMERIS_TYPE = 0
CLASSIFICATION_TYPE = U
NORAD_CAT_ID   = 66198
ELEMENT_SET_NO = 999
REV_AT_EPOCH   = 574
BSTAR          = .26003E-2
MEAN_MOTION_DOT = .7731E-3
MEAN_MOTION_DDOT = 0

CCSDS_OMM_VERS = 2.0
CREATION_DATE  = 
ORIGINATOR     = 

OBJECT_NAME    = STARLINK-35509
OBJECT_ID      = 2025-243Y
CENTER_NAME    = EARTH
REF_FRAME      = TEME
TIME_SYSTEM    = UTC
MEAN_ELEMENT_THEORY = SGP/SGP4

EPOCH          = 2025-11-25T02:00:03.000384
MEAN_MOTION    = 15.43586944
ECCENTRICITY   = .0001278
INCLINATION    = 53.1598
RA_OF_ASC_NODE = 11.2081
ARG_OF_PERICENTER = 69.7235
MEAN_ANOMALY   = 51.8394

EPHEMERIS_TYPE = 0
CLASSIFICATION_TYPE = U
NORAD_CAT_ID   = 66199
ELEMENT_SET_NO = 999
REV_AT_EPOCH   = 574
BSTAR          = -.49094E-1
MEAN_MOTION_DOT = -.1998767E-1
MEAN_MOTION_DDOT = 0

CCSDS_OMM_VERS = 2.0
CREATION_DATE  = 
ORIGINATOR     = 

OBJECT_NAME    = STARLINK-35551
OBJECT_ID      = 2025-243Z
CENTER_NAME    = EARTH
REF_FRAME      = TEME
TIME_SYSTEM    = UTC
MEAN_ELEMENT_THEORY = SGP/SGP4

EPOCH          = 2025-11-25T02:00:03.000384
MEAN_MOTION    = 15.44891943
ECCENTRICITY   = .0001337
INCLINATION    = 53.1593
RA_OF_ASC_NODE = 11.2061
ARG_OF_PERICENTER = 85.6501
MEAN_ANOMALY   = 37.2874

EPHEMERIS_TYPE = 0
CLASSIFICATION_TYPE = U
NORAD_CAT_ID   = 66200
ELEMENT_SET_NO = 999
REV_AT_EPOCH   = 574
BSTAR          = -.47522E-1
MEAN_MOTION_DOT = -.202059E-1
MEAN_MOTION_DDOT = 0

CCSDS_OMM_VERS = 2.0
CREATION_DATE  = 
ORIGINATOR     = 

OBJECT_NAME    = STARLINK-35543
OBJECT_ID      = 2025-243AA
CENTER_NAME    = EARTH
REF_FRAME      = TEME
TIME_SYSTEM    = UTC
MEAN_ELEMENT_THEORY = SGP/SGP4

EPOCH          = 2025-11-25T02:00:03.000384
MEAN_MOTION    = 15.43891033
ECCENTRICITY   = .000117
INCLINATION    = 53.1603
RA_OF_ASC_NODE = 11.2169
ARG_OF_PERICENTER = 75.0818
MEAN_ANOMALY   = 42.0288

EPHEMERIS_TYPE = 0
CLASSIFICATION_TYPE = U
NORAD_CAT_ID   = 66201
ELEMENT_SET_NO = 999
REV_AT_EPOCH   = 580
BSTAR          = -.49173E-1
MEAN_MOTION_DOT = -.2020189E-1
MEAN_MOTION_DDOT = 0

CCSDS_OMM_VERS = 2.0
CREATION_DATE  = 
ORIGINATOR     = 

OBJECT_NAME    = STARLINK-35534
OBJECT_ID      = 2025-243AB
CENTER_NAME    = EARTH
REF_FRAME      = TEME
TIME_SYSTEM    = UTC
MEAN_ELEMENT_THEORY = SGP/SGP4

EPOCH          = 2025-11-25T02:00:03.000384
MEAN_MOTION    = 15.42862962
ECCENTRICITY   = .000129
INCLINATION    = 53.1605
RA_OF_ASC_NODE = 11.2316
ARG_OF_PERICENTER = 79.3575
MEAN_ANOMALY   = 31.0293

EPHEMERIS_TYPE = 0
CLASSIFICATION_TYPE = U
NORAD_CAT_ID   = 66202
ELEMENT_SET_NO = 999
REV_AT_EPOCH   = 574
BSTAR          = -.50373E-1
MEAN_MOTION_DOT = -.2000697E-1
MEAN_MOTION_DDOT = 0

CCSDS_OMM_VERS = 2.0
CREATION_DATE  = 
ORIGINATOR     = 

OBJECT_NAME    = STARLINK-35548
OBJECT_ID      = 2025-243AC
CENTER_NAME    = EARTH
REF_FRAME      = TEME
TIME_SYSTEM    = UTC
MEAN_ELEMENT_THEORY = SGP/SGP4

EPOCH          = 2025-11-25T02:00:03.000384
MEAN_MOTION    = 15.41825131
ECCENTRICITY   = .0001325
INCLINATION    = 53.1605
RA_OF_ASC_NODE = 11.2472
ARG_OF_PERICENTER = 77.2050
MEAN_ANOMALY   = 25.5106

EPHEMERIS_TYPE = 0
CLASSIFICATION_TYPE = U
NORAD_CAT_ID   = 66203
ELEMENT_SET_NO = 999
REV_AT_EPOCH   = 580
BSTAR          = -.52146E-1
MEAN_MOTION_DOT = -.1999798E-1
MEAN_MOTION_DDOT = 0

CCSDS_OMM_VERS = 2.0
CREATION_DATE  = 
ORIGINATOR     = 

OBJECT_NAME    = STARLINK-35490
OBJECT_ID      = 2025-243AD
CENTER_NAME    = EARTH
REF_FRAME      = TEME
TIME_SYSTEM    = UTC
MEAN_ELEMENT_THEORY = SGP/SGP4

EPOCH          = 2025-11-25T02:00:03.000384
MEAN_MOTION    = 15.39756855
ECCENTRICITY   = .0000942
INCLINATION    = 53.1595
RA_OF_ASC_NODE = 11.2823
ARG_OF_PERICENTER = 86.2018
MEAN_ANOMALY   = 358.6076

EPHEMERIS_TYPE = 0
CLASSIFICATION_TYPE = U
NORAD_CAT_ID   = 66204
ELEMENT_SET_NO = 999
REV_AT_EPOCH   = 569
BSTAR          = -.55947E-1
MEAN_MOTION_DOT = -.2001631E-1
MEAN_MOTION_DDOT = 0

CCSDS_OMM_VERS = 2.0
CREATION_DATE  = 
ORIGINATOR     = 

OBJECT_NAME    = STARLINK-35748
OBJECT_ID      = 2025-244A
CENTER_NAME    = EARTH
REF_FRAME      = TEME
TIME_SYSTEM    = UTC
MEAN_ELEMENT_THEORY = SGP/SGP4

EPOCH          = 2025-11-24T19:47:47.853888
MEAN_MOTION    = 15.39637754
ECCENTRICITY   = .0000981
INCLINATION    = 53.1613
RA_OF_ASC_NODE = 0.5938
ARG_OF_PERICENTER = 62.5126
MEAN_ANOMALY   = 297.5978

EPHEMERIS_TYPE = 0
CLASSIFICATION_TYPE = U
NORAD_CAT_ID   = 66206
ELEMENT_SET_NO = 999
REV_AT_EPOCH   = 555
BSTAR          = .16237E-2
MEAN_MOTION_DOT = .65143E-3
MEAN_MOTION_DDOT = 0

CCSDS_OMM_VERS = 2.0
CREATION_DATE  = 
ORIGINATOR     = 

OBJECT_NAME    = STARLINK-35747
OBJECT_ID      = 2025-244B
CENTER_NAME    = EARTH
REF_FRAME      = TEME
TIME_SYSTEM    = UTC
MEAN_ELEMENT_THEORY = SGP/SGP4

EPOCH          = 2025-11-25T02:00:03.000384
MEAN_MOTION    = 15.63016074
ECCENTRICITY   = .0001427
INCLINATION    = 53.1593
RA_OF_ASC_NODE = 357.0008
ARG_OF_PERICENTER = 81.5805
MEAN_ANOMALY   = 10.1791

EPHEMERIS_TYPE = 0
CLASSIFICATION_TYPE = U
NORAD_CAT_ID   = 66207
ELEMENT_SET_NO = 999
REV_AT_EPOCH   = 541
BSTAR          = -.31322E-1
MEAN_MOTION_DOT = -.2521874E-1
MEAN_MOTION_DDOT = 0

CCSDS_OMM_VERS = 2.0
CREATION_DATE  = 
ORIGINATOR     = 

OBJECT_NAME    = STARLINK-35751
OBJECT_ID      = 2025-244C
CENTER_NAME    = EARTH
REF_FRAME      = TEME
TIME_SYSTEM    = UTC
MEAN_ELEMENT_THEORY = SGP/SGP4

EPOCH          = 2025-11-25T02:01:13.774080
MEAN_MOTION    = 15.39636941
ECCENTRICITY   = .0001644
INCLINATION    = 53.1607
RA_OF_ASC_NODE = 359.3663
ARG_OF_PERICENTER = 90.3497
MEAN_ANOMALY   = 269.7696

EPHEMERIS_TYPE = 0
CLASSIFICATION_TYPE = U
NORAD_CAT_ID   = 66208
ELEMENT_SET_NO = 999
REV_AT_EPOCH   = 559
BSTAR          = .1876E-2
MEAN_MOTION_DOT = .75426E-3
MEAN_MOTION_DDOT = 0

CCSDS_OMM_VERS = 2.0
CREATION_DATE  = 
ORIGINATOR     = 

OBJECT_NAME    = STARLINK-35750
OBJECT_ID      = 2025-244D
CENTER_NAME    = EARTH
REF_FRAME      = TEME
TIME_SYSTEM    = UTC
MEAN_ELEMENT_THEORY = SGP/SGP4

EPOCH          = 2025-11-24T19:40:38.413056
MEAN_MOTION    = 15.39640976
ECCENTRICITY   = .0002219
INCLINATION    = 53.1601
RA_OF_ASC_NODE = 0.5581
ARG_OF_PERICENTER = 88.6571
MEAN_ANOMALY   = 271.4688

EPHEMERIS_TYPE = 0
CLASSIFICATION_TYPE = U
NORAD_CAT_ID   = 66209
ELEMENT_SET_NO = 999
REV_AT_EPOCH   = 555
BSTAR          = .15332E-2
MEAN_MOTION_DOT = .61466E-3
MEAN_MOTION_DDOT = 0

CCSDS_OMM_VERS = 2.0
CREATION_DATE  = 
ORIGINATOR     = 

OBJECT_NAME    = STARLINK-35740
OBJECT_ID      = 2025-244E
CENTER_NAME    = EARTH
REF_FRAME      = TEME
TIME_SYSTEM    = UTC
MEAN_ELEMENT_THEORY = SGP/SGP4

EPOCH          = 2025-11-24T19:41:06.799776
MEAN_MOTION    = 15.39635239
ECCENTRICITY   = .0001264
INCLINATION    = 53.1612
RA_OF_ASC_NODE = 0.5595
ARG_OF_PERICENTER = 94.4415
MEAN_ANOMALY   = 265.6734

EPHEMERIS_TYPE = 0
CLASSIFICATION_TYPE = U
NORAD_CAT_ID   = 66210
ELEMENT_SET_NO = 999
REV_AT_EPOCH   = 555
BSTAR          = .11983E-2
MEAN_MOTION_DOT = .47858E-3
MEAN_MOTION_DDOT = 0

